{"type": "FeatureCollection", "features": [{"type": "Feature", "properties": {"norad_id": 28054, "name": "DMSP 5D-3 F16 (USA 172)", "group": "weather", "lat": 55.62077232486615, "lon": -167.7056320196207, "alt_km": 842.9642676422345, "timestamp": "2025-12-07T11:27:49.629721+00:00", "meta": {"OBJECT_NAME": "DMSP 5D-3 F16 (USA 172)", "OBJECT_ID": "2003-048A", "EPOCH": "2025-12-06T23:16:51.413664", "MEAN_MOTION": 14.14421071, "ECCENTRICITY": 0.00067336, "INCLINATION": 99.0049, "RA_OF_ASC_NODE": 358.3815, "ARG_OF_PERICENTER": 338.6482, "MEAN_ANOMALY": 81.2546, "EPHEMERIS_TYPE": 0, "CLASSIFICATION_TYPE": "U", "NORAD_CAT_ID": 28054, "ELEMENT_SET_NO": 999, "REV_AT_EPOCH": 14231, "BSTAR": 0.00016084776, "MEAN_MOTION_DOT": 2.62e-06, "MEAN_MOTION_DDOT": 0}, "tle": {"line1": "1 28054U 03048A   25340.97003951  .00000262  00000+0  16085-3 0  9994", "line2": "2 28054  99.0049 358.3815 0006733 338.6482  81.2546 14.14421071142310"}}, "geometry": {"type": "Point", "coordinates": [-167.7056320196207, 55.62077232486615]}}, {"type": "Feature", "properties": {"norad_id": 28912, "name": "METEOSAT-9 (MSG-2)", "group": "weather", "lat": -7.588489610210711, "lon": -66.20499409195737, "alt_km": 35775.72564203658, "timestamp": "2025-12-07T11:27:49.629773+00:00", "meta": {"OBJECT_NAME": "METEOSAT-9 (MSG-2)", "OBJECT_ID": "2005-049B", "EPOCH": "2025-12-06T20:43:46.094016", "MEAN_MOTION": 1.0027315, "ECCENTRICITY": 0.00039617, "INCLINATION": 8.926, "RA_OF_ASC_NODE": 56.0299, "ARG_OF_PERICENTER": 188.459, "MEAN_ANOMALY": 187.9596, "EPHEMERIS_TYPE": 0, "CLASSIFICATION_TYPE": "U", "NORAD_CAT_ID": 28912, "ELEMENT_SET_NO": 999, "REV_AT_EPOCH": 507, "BSTAR": 0, "MEAN_MOTION_DOT": 1.25e-06, "MEAN_MOTION_DDOT": 0}, "tle": {"line1": "1 28912U 05049B   25340.86372794  .00000125  00000+0  00000+0 0  9996", "line2": "2 28912   8.9260  56.0299 0003961 188.4590 187.9596  1.00273150  5070"}}, "geometry": {"type": "Point", "coordinates": [-66.20499409195737, -7.588489610210711]}}, {"type": "Feature", "properties": {"norad_id": 29522, "name": "DMSP 5D-3 F17 (USA 191)", "group": "weather", "lat": 53.38226551717946, "lon": -24.969573529720712, "alt_km": 844.1631511309251, "timestamp": "2025-12-07T11:27:49.629792+00:00", "meta": {"OBJECT_NAME": "DMSP 5D-3 F17 (USA 191)", "OBJECT_ID": "2006-050A", "EPOCH": "2025-12-06T23:19:39.084960", "MEAN_MOTION": 14.14915873, "ECCENTRICITY": 0.00092405, "INCLINATION": 98.7393, "RA_OF_ASC_NODE": 346.4811, "ARG_OF_PERICENTER": 242.6623, "MEAN_ANOMALY": 117.3611, "EPHEMERIS_TYPE": 0, "CLASSIFICATION_TYPE": "U", "NORAD_CAT_ID": 29522, "ELEMENT_SET_NO": 999, "REV_AT_EPOCH": 98523, "BSTAR": 0.00018634193, "MEAN_MOTION_DOT": 3.17e-06, "MEAN_MOTION_DDOT": 0}, "tle": {"line1": "1 29522U 06050A   25340.97198015  .00000317  00000+0  18634-3 0  9990", "line2": "2 29522  98.7393 346.4811 0009240 242.6623 117.3611 14.14915873985238"}}, "geometry": {"type": "Point", "coordinates": [-24.969573529720712, 53.38226551717946]}}, {"type": "Feature", "properties": {"norad_id": 32958, "name": "FENGYUN 3A", "group": "weather", "lat": 40.888090686091346, "lon": -86.47561108841616, "alt_km": 822.1412458049235, "timestamp": "2025-12-07T11:27:49.629807+00:00", "meta": {"OBJECT_NAME": "FENGYUN 3A", "OBJECT_ID": "2008-026A", "EPOCH": "2025-12-06T20:02:39.189120", "MEAN_MOTION": 14.19511742, "ECCENTRICITY": 0.00081758, "INCLINATION": 98.6689, "RA_OF_ASC_NODE": 280.4865, "ARG_OF_PERICENTER": 328.837, "MEAN_ANOMALY": 31.2321, "EPHEMERIS_TYPE": 0, "CLASSIFICATION_TYPE": "U", "NORAD_CAT_ID": 32958, "ELEMENT_SET_NO": 999, "REV_AT_EPOCH": 90811, "BSTAR": 0.00013539268, "MEAN_MOTION_DOT": 2.42e-06, "MEAN_MOTION_DDOT": 0}, "tle": {"line1": "1 32958U 08026A   25340.83517580  .00000242  00000+0  13539-3 0  9995", "line2": "2 32958  98.6689 280.4865 0008175 328.8370  31.2321 14.19511742908116"}}, "geometry": {"type": "Point", "coordinates": [-86.47561108841616, 40.888090686091346]}}, {"type": "Feature", "properties": {"norad_id": 35491, "name": "GOES 14", "group": "weather", "lat": 0.9748753901708618, "lon": 140.08482735217868, "alt_km": 35788.38735283664, "timestamp": "2025-12-07T11:27:49.629822+00:00", "meta": {"OBJECT_NAME": "GOES 14", "OBJECT_ID": "2009-033A", "EPOCH": "2025-12-06T21:42:40.451904", "MEAN_MOTION": 1.00272901, "ECCENTRICITY": 0.00041556, "INCLINATION": 1.1835, "RA_OF_ASC_NODE": 85.4757, "ARG_OF_PERICENTER": 153.443, "MEAN_ANOMALY": 54.3698, "EPHEMERIS_TYPE": 0, "CLASSIFICATION_TYPE": "U", "NORAD_CAT_ID": 35491, "ELEMENT_SET_NO": 999, "REV_AT_EPOCH": 466, "BSTAR": 0, "MEAN_MOTION_DOT": -6.3e-07, "MEAN_MOTION_DDOT": 0}, "tle": {"line1": "1 35491U 09033A   25340.90463486 -.00000063  00000+0  00000+0 0  9999", "line2": "2 35491   1.1835  85.4757 0004155 153.4430  54.3698  1.00272901  4666"}}, "geometry": {"type": "Point", "coordinates": [140.08482735217868, 0.9748753901708618]}}, {"type": "Feature", "properties": {"norad_id": 35951, "name": "DMSP 5D-3 F18 (USA 210)", "group": "weather", "lat": -73.09075558326646, "lon": -11.135975360595658, "alt_km": 858.1058760391079, "timestamp": "2025-12-07T11:27:49.629835+00:00", "meta": {"OBJECT_NAME": "DMSP 5D-3 F18 (USA 210)", "OBJECT_ID": "2009-057A", "EPOCH": "2025-12-06T22:14:31.251840", "MEAN_MOTION": 14.14763767, "ECCENTRICITY": 0.00121244, "INCLINATION": 98.8827, "RA_OF_ASC_NODE": 317.3568, "ARG_OF_PERICENTER": 77.8531, "MEAN_ANOMALY": 282.4, "EPHEMERIS_TYPE": 0, "CLASSIFICATION_TYPE": "U", "NORAD_CAT_ID": 35951, "ELEMENT_SET_NO": 999, "REV_AT_EPOCH": 83240, "BSTAR": 0.00023718194, "MEAN_MOTION_DOT": 4.13e-06, "MEAN_MOTION_DDOT": 0}, "tle": {"line1": "1 35951U 09057A   25340.92675060  .00000413  00000+0  23718-3 0  9994", "line2": "2 35951  98.8827 317.3568 0012124  77.8531 282.4000 14.14763767832400"}}, "geometry": {"type": "Point", "coordinates": [-11.135975360595658, -73.09075558326646]}}, {"type": "Feature", "properties": {"norad_id": 36411, "name": "EWS-G2 (GOES 15)", "group": "weather", "lat": -0.5678210638639131, "lon": -50.0429288233294, "alt_km": 35771.17206891952, "timestamp": "2025-12-07T11:27:49.629849+00:00", "meta": {"OBJECT_NAME": "EWS-G2 (GOES 15)", "OBJECT_ID": "2010-008A", "EPOCH": "2025-12-06T15:40:13.705824", "MEAN_MOTION": 1.00268345, "ECCENTRICITY": 0.000602, "INCLINATION": 0.7984, "RA_OF_ASC_NODE": 86.0287, "ARG_OF_PERICENTER": 172.4317, "MEAN_ANOMALY": 113.7488, "EPHEMERIS_TYPE": 0, "CLASSIFICATION_TYPE": "U", "NORAD_CAT_ID": 36411, "ELEMENT_SET_NO": 999, "REV_AT_EPOCH": 5770, "BSTAR": 0, "MEAN_MOTION_DOT": 4.4e-07, "MEAN_MOTION_DDOT": 0}, "tle": {"line1": "1 36411U 10008A   25340.65293641  .00000044  00000+0  00000+0 0  9990", "line2": "2 36411   0.7984  86.0287 0006020 172.4317 113.7488  1.00268345 57709"}}, "geometry": {"type": "Point", "coordinates": [-50.0429288233294, -0.5678210638639131]}}, {"type": "Feature", "properties": {"norad_id": 36744, "name": "COMS 1", "group": "weather", "lat": -3.787834663812663, "lon": 16.710903008718372, "alt_km": 35788.224613371254, "timestamp": "2025-12-07T11:27:49.629862+00:00", "meta": {"OBJECT_NAME": "COMS 1", "OBJECT_ID": "2010-032A", "EPOCH": "2025-12-06T20:17:51.814176", "MEAN_MOTION": 1.00271499, "ECCENTRICITY": 0.00011842, "INCLINATION": 4.3265, "RA_OF_ASC_NODE": 78.0619, "ARG_OF_PERICENTER": 191.6112, "MEAN_ANOMALY": 238.845, "EPHEMERIS_TYPE": 0, "CLASSIFICATION_TYPE": "U", "NORAD_CAT_ID": 36744, "ELEMENT_SET_NO": 999, "REV_AT_EPOCH": 4916, "BSTAR": 0, "MEAN_MOTION_DOT": -3.4e-06, "MEAN_MOTION_DDOT": 0}, "tle": {"line1": "1 36744U 10032A   25340.84573859 -.00000340  00000+0  00000+0 0  9999", "line2": "2 36744   4.3265  78.0619 0001184 191.6112 238.8450  1.00271499 49165"}}, "geometry": {"type": "Point", "coordinates": [16.710903008718372, -3.787834663812663]}}, {"type": "Feature", "properties": {"norad_id": 37214, "name": "FENGYUN 3B", "group": "weather", "lat": -66.75080843038558, "lon": 179.79178122655972, "alt_km": 859.2642440752816, "timestamp": "2025-12-07T11:27:49.629874+00:00", "meta": {"OBJECT_NAME": "FENGYUN 3B", "OBJECT_ID": "2010-059A", "EPOCH": "2025-12-06T22:41:18.501792", "MEAN_MOTION": 14.1478736, "ECCENTRICITY": 0.00222734, "INCLINATION": 98.9917, "RA_OF_ASC_NODE": 20.8821, "ARG_OF_PERICENTER": 14.1632, "MEAN_ANOMALY": 44.828, "EPHEMERIS_TYPE": 0, "CLASSIFICATION_TYPE": "U", "NORAD_CAT_ID": 37214, "ELEMENT_SET_NO": 999, "REV_AT_EPOCH": 78024, "BSTAR": 0.00013180187, "MEAN_MOTION_DOT": 2.09e-06, "MEAN_MOTION_DDOT": 0}, "tle": {"line1": "1 37214U 10059A   25340.94535303  .00000209  00000+0  13180-3 0  9994", "line2": "2 37214  98.9917  20.8821 0022273  14.1632  44.8280 14.14787360780244"}}, "geometry": {"type": "Point", "coordinates": [179.79178122655972, -66.75080843038558]}}, {"type": "Feature", "properties": {"norad_id": 37849, "name": "SUOMI NPP", "group": "weather", "lat": 0.01177636177555129, "lon": -81.13506041199557, "alt_km": 830.8349223890018, "timestamp": "2025-12-07T11:27:49.629886+00:00", "meta": {"OBJECT_NAME": "SUOMI NPP", "OBJECT_ID": "2011-061A", "EPOCH": "2025-12-06T21:55:49.235520", "MEAN_MOTION": 14.19511597, "ECCENTRICITY": 0.00020446, "INCLINATION": 98.7764, "RA_OF_ASC_NODE": 278.3081, "ARG_OF_PERICENTER": 130.4437, "MEAN_ANOMALY": 229.6917, "EPHEMERIS_TYPE": 0, "CLASSIFICATION_TYPE": "U", "NORAD_CAT_ID": 37849, "ELEMENT_SET_NO": 999, "REV_AT_EPOCH": 73116, "BSTAR": 0.00011571054, "MEAN_MOTION_DOT": 2e-06, "MEAN_MOTION_DDOT": 0}, "tle": {"line1": "1 37849U 11061A   25340.91376430  .00000200  00000+0  11571-3 0  9996", "line2": "2 37849  98.7764 278.3081 0002044 130.4437 229.6917 14.19511597731162"}}, "geometry": {"type": "Point", "coordinates": [-81.13506041199557, 0.01177636177555129]}}]}